IRIDIUM 155             
1 43573U 18061E   24039.56294355  .00000128  00000+0  38599-4 0  9993
2 43573  86.3923  55.9317 0001993  87.9860 272.1564 14.34217490290143
IRIDIUM 154             
1 43574U 18061F   24039.54391727  .00000132  00000+0  40133-4 0  9995
2 43574  86.3928  56.0313 0002419  89.0269 271.1204 14.34217971290196
IRIDIUM 163             
1 43575U 18061G   24039.94350609  .00000261  00000+0  86111-4 0  9993
2 43575  86.3926  55.8062 0002279  88.9114 271.2343 14.34217319290229
IRIDIUM 156             
1 43576U 18061H   24039.56927285  .00000034  00000+0  51103-5 0  9994
2 43576  86.3922  55.9691 0002056  95.1398 265.0032 14.34215703290155
IRIDIUM 164             
1 43577U 18061J   24039.55025783  .00000102  00000+0  29427-4 0  9995
2 43577  86.3925  56.0038 0002331  96.4849 263.6612 14.34217408290205
IRIDIUM 159             
1 43578U 18061K   24039.86738585  .00000191  00000+0  61012-4 0  9995
2 43578  86.3925  55.8261 0002301  88.3726 271.7733 14.34217084290217
IRIDIUM 180             
1 43922U 19002A   24039.93665156  .00000118  00000+0  35070-4 0  9999
2 43922  86.4009 352.6894 0002298  87.6599 272.4859 14.34217325265834
IRIDIUM 176             
1 43923U 19002B   24039.91121968  .00002006  00000+0  31425-3 0  9993
2 43923  86.6138 352.7288 0002343  88.6522 271.4964 14.72243314272828
IRIDIUM 168             
1 43924U 19002C   24039.93030996  .00000125  00000+0  37559-4 0  9991
2 43924  86.4012 352.7453 0002236  84.8458 275.2992 14.34218942265810
IRIDIUM 173             
1 43925U 19002D   24039.91762418  .00000215  00000+0  69583-4 0  9993
2 43925  86.4008 352.6749 0002179  83.5455 276.5988 14.34217631265792
IRIDIUM 169             
1 43926U 19002E   24039.96027698  .00000709  00000+0  22519-3 0  9998
2 43926  86.4228  24.2522 0001255 351.8076   8.3102 14.38610493266698
IRIDIUM 172             
1 43927U 19002F   24039.91126995  .00000554  00000+0  19062-3 0  9991
2 43927  86.4003 352.6821 0002579  89.4493 270.6999 14.34219254265803
IRIDIUM 175             
1 43928U 19002G   24039.83732251  .00002152  00000+0  33739-3 0  9994
2 43928  86.1556 333.2277 0002340  70.1596 289.9872 14.72236830272803
IRIDIUM 171             
1 43929U 19002H   24039.82248553  .00000263  00000+0  86847-4 0  9991
2 43929  86.4019 352.9309 0002171  89.1751 270.9694 14.34219096265784
IRIDIUM 170             
1 43930U 19002J   24039.91740559  .00002019  00000+0  31601-3 0  9994
2 43930  86.6137 352.7314 0002472  87.0417 273.1083 14.72288251272835
IRIDIUM 167             
1 43931U 19002K   24039.95567871  .00000270  00000+0  89239-4 0  9991
2 43931  86.4008 352.6791 0002248  88.9607 271.1846 14.34218355265801
IRIDIUM 181             
1 56726U 23068S   24039.90110396  .00000359  00000+0  10014-3 0  9997
2 56726  86.8608  40.1352 0002261 105.6444 254.5007 14.43575923 38483
IRIDIUM 177             
1 56727U 23068T   24039.90331752  .00002778  00000+0  36214-3 0  9996
2 56727  86.1983  16.7217 0002444  91.2663 268.8837 14.80223005 39255
IRIDIUM 174             
1 56728U 23068U   24039.89787574  .00001285  00000+0  16566-3 0  9992
2 56728  86.1993  16.8179 0002326  89.9836 270.1652 14.80221068 39258
IRIDIUM 178             
1 56729U 23068V   24037.99986720  .00001053  00000+0  13521-3 0  9997
2 56729  86.5776  28.9584 0002591  90.3089 269.8430 14.80227593 38972
IRIDIUM 179             
1 56730U 23068W   24039.48174915  .00001210  00000+0  15591-3 0  9994
2 56730  86.6783  30.8245 0002392  94.9270 265.2225 14.80221317 39195
